{"type": "FeatureCollection", "features": [{"type": "Feature", "properties": {"norad_id": 2807, "name": "OPS 7218 (TRANSIT 16)", "group": "nnss", "lat": 55.47761049692026, "lon": -5.988383911394037, "alt_km": 1048.8916855176067, "timestamp": "2025-12-27T04:40:45.774174+00:00", "meta": {"OBJECT_NAME": "OPS 7218 (TRANSIT 16)", "OBJECT_ID": "1967-048A", "EPOCH": "2025-12-26T23:19:59.375136", "MEAN_MOTION": 13.50725217, "ECCENTRICITY": 0.00221237, "INCLINATION": 89.6735, "RA_OF_ASC_NODE": 353.544, "ARG_OF_PERICENTER": 76.2201, "MEAN_ANOMALY": 336.8586, "EPHEMERIS_TYPE": 0, "CLASSIFICATION_TYPE": "U", "NORAD_CAT_ID": 2807, "ELEMENT_SET_NO": 999, "REV_AT_EPOCH": 88468, "BSTAR": 0.00016668264, "MEAN_MOTION_DOT": 1.18e-06, "MEAN_MOTION_DDOT": 0}, "tle": {"line1": "1 02807U 67048A   25360.97221499  .00000118  00000+0  16668-3 0  9990", "line2": "2 02807  89.6735 353.5440 0022123  76.2201 336.8586 13.50725217884685"}}, "geometry": {"type": "Point", "coordinates": [-5.988383911394037, 55.47761049692026]}}, {"type": "Feature", "properties": {"norad_id": 2965, "name": "OPS 4947 (TRANSIT 17)", "group": "nnss", "lat": -82.58687573429215, "lon": -150.87812043261545, "alt_km": 1055.3576294405439, "timestamp": "2025-12-27T04:40:45.774196+00:00", "meta": {"OBJECT_NAME": "OPS 4947 (TRANSIT 17)", "OBJECT_ID": "1967-092A", "EPOCH": "2025-12-27T00:08:15.102240", "MEAN_MOTION": 13.53457391, "ECCENTRICITY": 0.00472777, "INCLINATION": 89.2485, "RA_OF_ASC_NODE": 23.3468, "ARG_OF_PERICENTER": 192.2992, "MEAN_ANOMALY": 228.2673, "EPHEMERIS_TYPE": 0, "CLASSIFICATION_TYPE": "U", "NORAD_CAT_ID": 2965, "ELEMENT_SET_NO": 999, "REV_AT_EPOCH": 87290, "BSTAR": 0.00020302152, "MEAN_MOTION_DOT": 1.49e-06, "MEAN_MOTION_DDOT": 0}, "tle": {"line1": "1 02965U 67092A   25361.00573035  .00000149  00000+0  20302-3 0  9999", "line2": "2 02965  89.2485  23.3468 0047277 192.2992 228.2673 13.53457391872904"}}, "geometry": {"type": "Point", "coordinates": [-150.87812043261545, -82.58687573429215]}}, {"type": "Feature", "properties": {"norad_id": 3133, "name": "OPS 7034 (TRANSIT 18)", "group": "nnss", "lat": -47.035500341360226, "lon": -86.2891619004674, "alt_km": 1129.0085357271819, "timestamp": "2025-12-27T04:40:45.774210+00:00", "meta": {"OBJECT_NAME": "OPS 7034 (TRANSIT 18)", "OBJECT_ID": "1968-012A", "EPOCH": "2025-12-26T18:31:16.182912", "MEAN_MOTION": 13.51569067, "ECCENTRICITY": 0.00750978, "INCLINATION": 90.0285, "RA_OF_ASC_NODE": 273.679, "ARG_OF_PERICENTER": 128.8758, "MEAN_ANOMALY": 286.0505, "EPHEMERIS_TYPE": 0, "CLASSIFICATION_TYPE": "U", "NORAD_CAT_ID": 3133, "ELEMENT_SET_NO": 999, "REV_AT_EPOCH": 57108, "BSTAR": 0.00020640166, "MEAN_MOTION_DOT": 1.47e-06, "MEAN_MOTION_DDOT": 0}, "tle": {"line1": "1 03133U 68012A   25360.77171508  .00000147  00000+0  20640-3 0  9995", "line2": "2 03133  90.0285 273.6790 0075097 128.8758 286.0505 13.51569067571087"}}, "geometry": {"type": "Point", "coordinates": [-86.2891619004674, -47.035500341360226]}}, {"type": "Feature", "properties": {"norad_id": 4507, "name": "NNSS 19 (TRANSIT 19)", "group": "nnss", "lat": -87.7664985761924, "lon": -125.33851885085927, "alt_km": 956.4017627329131, "timestamp": "2025-12-27T04:40:45.774221+00:00", "meta": {"OBJECT_NAME": "NNSS 19 (TRANSIT 19)", "OBJECT_ID": "1970-067A", "EPOCH": "2025-12-26T14:53:26.024640", "MEAN_MOTION": 13.51317911, "ECCENTRICITY": 0.0170229, "INCLINATION": 90.0046, "RA_OF_ASC_NODE": 234.5432, "ARG_OF_PERICENTER": 252.7431, "MEAN_ANOMALY": 105.5031, "EPHEMERIS_TYPE": 0, "CLASSIFICATION_TYPE": "U", "NORAD_CAT_ID": 4507, "ELEMENT_SET_NO": 999, "REV_AT_EPOCH": 72409, "BSTAR": 0.00012342, "MEAN_MOTION_DOT": 9.5e-07, "MEAN_MOTION_DDOT": 0}, "tle": {"line1": "1 04507U 70067A   25360.62044010  .00000095  00000+0  12342-3 0  9997", "line2": "2 04507  90.0046 234.5432 0170229 252.7431 105.5031 13.51317911724094"}}, "geometry": {"type": "Point", "coordinates": [-125.33851885085927, -87.7664985761924]}}, {"type": "Feature", "properties": {"norad_id": 6909, "name": "NNSS 20 (TRANSIT 20)", "group": "nnss", "lat": -52.03027119463874, "lon": -105.34719569370482, "alt_km": 994.3866044781525, "timestamp": "2025-12-27T04:40:45.774232+00:00", "meta": {"OBJECT_NAME": "NNSS 20 (TRANSIT 20)", "OBJECT_ID": "1973-081A", "EPOCH": "2025-12-26T04:24:52.750368", "MEAN_MOTION": 13.7144138, "ECCENTRICITY": 0.0156059, "INCLINATION": 89.8559, "RA_OF_ASC_NODE": 254.8528, "ARG_OF_PERICENTER": 38.4618, "MEAN_ANOMALY": 322.7546, "EPHEMERIS_TYPE": 0, "CLASSIFICATION_TYPE": "U", "NORAD_CAT_ID": 6909, "ELEMENT_SET_NO": 999, "REV_AT_EPOCH": 80545, "BSTAR": 0.00027705, "MEAN_MOTION_DOT": 2.83e-06, "MEAN_MOTION_DDOT": 0}, "tle": {"line1": "1 06909U 73081A   25360.18394387  .00000283  00000+0  27705-3 0  9998", "line2": "2 06909  89.8559 254.8528 0156059  38.4618 322.7546 13.71441380805453"}}, "geometry": {"type": "Point", "coordinates": [-105.34719569370482, -52.03027119463874]}}, {"type": "Feature", "properties": {"norad_id": 10457, "name": "TRANSAT", "group": "nnss", "lat": 26.57439795408145, "lon": -102.09178205482395, "alt_km": 1055.3468472070444, "timestamp": "2025-12-27T04:40:45.774243+00:00", "meta": {"OBJECT_NAME": "TRANSAT", "OBJECT_ID": "1977-106A", "EPOCH": "2025-12-26T23:26:10.304160", "MEAN_MOTION": 13.48945827, "ECCENTRICITY": 0.00266559, "INCLINATION": 89.6473, "RA_OF_ASC_NODE": 78.0925, "ARG_OF_PERICENTER": 149.2832, "MEAN_ANOMALY": 23.7327, "EPHEMERIS_TYPE": 0, "CLASSIFICATION_TYPE": "U", "NORAD_CAT_ID": 10457, "ELEMENT_SET_NO": 999, "REV_AT_EPOCH": 36935, "BSTAR": 0.00012463457, "MEAN_MOTION_DOT": 8.9e-07, "MEAN_MOTION_DDOT": 0}, "tle": {"line1": "1 10457U 77106A   25360.97650815  .00000089  00000+0  12463-3 0  9990", "line2": "2 10457  89.6473  78.0925 0026655 149.2832  23.7327 13.48945827369351"}}, "geometry": {"type": "Point", "coordinates": [-102.09178205482395, 26.57439795408145]}}, {"type": "Feature", "properties": {"norad_id": 12458, "name": "NOVA 1", "group": "nnss", "lat": 18.662305874158466, "lon": -88.86917094490036, "alt_km": 1173.0200169079371, "timestamp": "2025-12-27T04:40:45.774254+00:00", "meta": {"OBJECT_NAME": "NOVA 1", "OBJECT_ID": "1981-044A", "EPOCH": "2025-12-26T19:24:00.790272", "MEAN_MOTION": 13.23280067, "ECCENTRICITY": 0.00156723, "INCLINATION": 89.8524, "RA_OF_ASC_NODE": 91.1862, "ARG_OF_PERICENTER": 69.399, "MEAN_ANOMALY": 50.8821, "EPHEMERIS_TYPE": 0, "CLASSIFICATION_TYPE": "U", "NORAD_CAT_ID": 12458, "ELEMENT_SET_NO": 999, "REV_AT_EPOCH": 15372, "BSTAR": 0.00010692404, "MEAN_MOTION_DOT": 5.4e-07, "MEAN_MOTION_DDOT": 0}, "tle": {"line1": "1 12458U 81044A   25360.80834248  .00000054  00000+0  10692-3 0  9999", "line2": "2 12458  89.8524  91.1862 0015672  69.3990  50.8821 13.23280067153726"}}, "geometry": {"type": "Point", "coordinates": [-88.86917094490036, 18.662305874158466]}}, {"type": "Feature", "properties": {"norad_id": 15362, "name": "NOVA 3", "group": "nnss", "lat": 21.826225061617276, "lon": 80.65582314059544, "alt_km": 1173.4155674796257, "timestamp": "2025-12-27T04:40:45.774264+00:00", "meta": {"OBJECT_NAME": "NOVA 3", "OBJECT_ID": "1984-110A", "EPOCH": "2025-12-26T12:17:22.808256", "MEAN_MOTION": 13.23046399, "ECCENTRICITY": 0.0029843, "INCLINATION": 90.1217, "RA_OF_ASC_NODE": 80.6966, "ARG_OF_PERICENTER": 292.1662, "MEAN_ANOMALY": 78.6503, "EPHEMERIS_TYPE": 0, "CLASSIFICATION_TYPE": "U", "NORAD_CAT_ID": 15362, "ELEMENT_SET_NO": 999, "REV_AT_EPOCH": 98881, "BSTAR": 0.00016272, "MEAN_MOTION_DOT": 7.7e-07, "MEAN_MOTION_DDOT": 0}, "tle": {"line1": "1 15362U 84110A   25360.51206954  .00000077  00000+0  16272-3 0  9993", "line2": "2 15362  90.1217  80.6966 0029843 292.1662  78.6503 13.23046399988811"}}, "geometry": {"type": "Point", "coordinates": [80.65582314059544, 21.826225061617276]}}, {"type": "Feature", "properties": {"norad_id": 15935, "name": "OSCAR 30", "group": "nnss", "lat": 60.189824146441566, "lon": 99.7946522040656, "alt_km": 996.7387673312123, "timestamp": "2025-12-27T04:40:45.774275+00:00", "meta": {"OBJECT_NAME": "OSCAR 30", "OBJECT_ID": "1985-066A", "EPOCH": "2025-12-26T18:09:23.815296", "MEAN_MOTION": 13.36080704, "ECCENTRICITY": 0.01687436, "INCLINATION": 90.1653, "RA_OF_ASC_NODE": 100.0762, "ARG_OF_PERICENTER": 44.7156, "MEAN_ANOMALY": 67.3239, "EPHEMERIS_TYPE": 0, "CLASSIFICATION_TYPE": "U", "NORAD_CAT_ID": 15935, "ELEMENT_SET_NO": 999, "REV_AT_EPOCH": 96640, "BSTAR": 0.00016877766, "MEAN_MOTION_DOT": 1.03e-06, "MEAN_MOTION_DDOT": 0}, "tle": {"line1": "1 15935U 85066A   25360.75652564  .00000103  00000+0  16878-3 0  9990", "line2": "2 15935  90.1653 100.0762 0168743  44.7156  67.3239 13.36080704966408"}}, "geometry": {"type": "Point", "coordinates": [99.7946522040656, 60.189824146441566]}}, {"type": "Feature", "properties": {"norad_id": 15936, "name": "OSCAR 24", "group": "nnss", "lat": 50.403100442654626, "lon": -87.22209776893511, "alt_km": 1094.7566979368194, "timestamp": "2025-12-27T04:40:45.774285+00:00", "meta": {"OBJECT_NAME": "OSCAR 24", "OBJECT_ID": "1985-066B", "EPOCH": "2025-12-26T19:39:06.784128", "MEAN_MOTION": 13.35937892, "ECCENTRICITY": 0.01699271, "INCLINATION": 90.1792, "RA_OF_ASC_NODE": 92.5545, "ARG_OF_PERICENTER": 50.9961, "MEAN_ANOMALY": 68.6575, "EPHEMERIS_TYPE": 0, "CLASSIFICATION_TYPE": "U", "NORAD_CAT_ID": 15936, "ELEMENT_SET_NO": 999, "REV_AT_EPOCH": 96831, "BSTAR": 0.00014480105, "MEAN_MOTION_DOT": 9e-07, "MEAN_MOTION_DDOT": 0}, "tle": {"line1": "1 15936U 85066B   25360.81882852  .00000090  00000+0  14480-3 0  9995", "line2": "2 15936  90.1792  92.5545 0169927  50.9961  68.6575 13.35937892968312"}}, "geometry": {"type": "Point", "coordinates": [-87.22209776893511, 50.403100442654626]}}]}